{
    "links": {
        "self": "http://www.neowsapp.com/rest/v1/neo/3574135?api_key=iIulBulltgU6a56xZRHN4H3l9WmuAYTsLGpBGhQ2"
    },
    "id": "3574135",
    "neo_reference_id": "3574135",
    "name": "(2011 OY17)",
    "designation": "2011 OY17",
    "nasa_jpl_url": "http://ssd.jpl.nasa.gov/sbdb.cgi?sstr=3574135",
    "absolute_magnitude_h": 21.9,
    "estimated_diameter": {
        "kilometers": {
            "estimated_diameter_min": 0.1108038821,
            "estimated_diameter_max": 0.2477650126
        },
        "meters": {
            "estimated_diameter_min": 110.8038821264,
            "estimated_diameter_max": 247.7650126055
        },
        "miles": {
            "estimated_diameter_min": 0.068850319,
            "estimated_diameter_max": 0.1539539936
        },
        "feet": {
            "estimated_diameter_min": 363.5298086356,
            "estimated_diameter_max": 812.8773639568
        }
    },
    "is_potentially_hazardous_asteroid": false,
    "close_approach_data": [
        {
            "close_approach_date": "1992-07-15",
            "close_approach_date_full": "1992-Jul-15 20:31",
            "epoch_date_close_approach": 711232260000,
            "relative_velocity": {
                "kilometers_per_second": "21.2374934393",
                "kilometers_per_hour": "76454.9763814127",
                "miles_per_hour": "47506.1490743283"
            },
            "miss_distance": {
                "astronomical": "0.4975462074",
                "lunar": "193.5454746786",
                "kilometers": "74431852.853618238",
                "miles": "46249808.7311101644"
            },
            "orbiting_body": "Earth"
        },
        {
            "close_approach_date": "2011-08-24",
            "close_approach_date_full": "2011-Aug-24 04:27",
            "epoch_date_close_approach": 1314160020000,
            "relative_velocity": {
                "kilometers_per_second": "9.2591283386",
                "kilometers_per_hour": "33332.8620189546",
                "miles_per_hour": "20711.744180611"
            },
            "miss_distance": {
                "astronomical": "0.0777912145",
                "lunar": "30.2607824405",
                "kilometers": "11637399.993913115",
                "miles": "7231145.043566387"
            },
            "orbiting_body": "Earth"
        },
        {
            "close_approach_date": "2030-10-18",
            "close_approach_date_full": "2030-Oct-18 23:00",
            "epoch_date_close_approach": 1918594800000,
            "relative_velocity": {
                "kilometers_per_second": "18.095063071",
                "kilometers_per_hour": "65142.2270557091",
                "miles_per_hour": "40476.8465835877"
            },
            "miss_distance": {
                "astronomical": "0.441607686",
                "lunar": "171.785389854",
                "kilometers": "66063569.20122882",
                "miles": "41049998.387924916"
            },
            "orbiting_body": "Earth"
        }
    ],
    "orbital_data": {
        "orbit_id": "31",
        "orbit_determination_date": "2017-04-06 08:53:06",
        "first_observation_date": "2011-07-27",
        "last_observation_date": "2011-10-25",
        "data_arc_in_days": 90,
        "observations_used": 134,
        "orbit_uncertainty": "6",
        "minimum_orbit_intersection": ".061243",
        "jupiter_tisserand_invariant": "3.247",
        "epoch_osculation": "2459000.5",
        "eccentricity": ".5635459797814586",
        "semi_major_axis": "2.442994116197497",
        "inclination": "9.259978569654784",
        "ascending_node_longitude": "156.527908320783",
        "orbital_period": "1394.704038269198",
        "perihelion_distance": "1.06625460338464",
        "perihelion_argument": "189.9409328321249",
        "aphelion_distance": "3.819733629010354",
        "perihelion_time": "2458593.504111795900",
        "mean_anomaly": "105.0534849926318",
        "mean_motion": ".2581192784432985",
        "equinox": "J2000",
        "orbit_class": {
            "orbit_class_type": "AMO",
            "orbit_class_description": "Near-Earth asteroid orbits similar to that of 1221 Amor",
            "orbit_class_range": "1.017 AU < q (perihelion) < 1.3 AU"
        }
    },
    "is_sentry_object": false
}